DELTA 2 R/B(1)          
1 20453U 90008B   26055.91946203  .00060269  00000+0  75384-3 0  9995
2 20453  35.6034 258.5428 0088090 139.8836 220.8445 15.54034713924142
COSMOS 2058             
1 20465U 90010A   26056.06786835  .00003607  00000+0  21295-3 0  9996
2 20465  82.4672  59.8630 0010250  25.8279 334.3461 15.11192346940336
SL-14 R/B               
1 20466U 90010B   26056.07434395  .00000339  00000+0  38197-4 0  9998
2 20466  82.4999 279.2414 0019426 345.8849  14.1821 14.83556509926610
SL-14 R/B               
1 20511U 90018B   26055.74246488  .00000473  00000+0  56354-4 0  9998
2 20511  82.5183 235.1929 0017389 131.4881 228.7829 14.82128522920669
HST                     
1 20580U 90037B   26056.28335081  .00007140  00000+0  23653-3 0  9996
2 20580  28.4689 124.6179 0001259 353.4201   6.6378 15.29261769771417
SL-16 R/B               
1 20625U 90046B   26056.18475829 -.00000016  00000+0  16225-4 0  9994
2 20625  71.0016 324.1764 0015817 316.7358  43.2521 14.15015286846620
COSMOS 2084             
1 20663U 90055A   26056.23566491  .00002814  00000+0  20767-3 0  9990
2 20663  62.7912  18.0500 0019022 187.1015 172.9819 15.05559438934443
SL-6 R/B(2)             
1 20666U 90055D   26055.66929731  .00002082  00000+0  16563-3 0  9995
2 20666  62.7831 298.1277 0022731 343.7050  16.3316 15.03525271936236
SL-8 R/B                
1 20775U 90078B   26056.07508799  .00012702  00000+0  37241-3 0  9990
2 20775  82.9003 262.6530 0365035  56.3288 307.2179 14.88598164807427
SL-8 R/B                
1 21088U 91006B   26056.27622797  .00000053  00000+0  37699-4 0  9991
2 21088  82.9459 179.2736 0023628  71.6417 350.1127 13.77492840762368
OKEAN-3                 
1 21397U 91039A   26056.24391644  .00003136  00000+0  22039-3 0  9997
2 21397  82.5201 348.8977 0014858  20.0312 340.1494 15.04704453863164
COSMOS 2151             
1 21422U 91042A   26056.20950571  .00001433  00000+0  11276-3 0  9995
2 21422  82.4938  95.7174 0014128 100.9196 259.3618 15.00050674861324
