CCSDS_OMM_VERS = 2.0
CREATION_DATE  = 
ORIGINATOR     = 

OBJECT_NAME    = DELTA 2 R/B(1)
OBJECT_ID      = 1990-008B
CENTER_NAME    = EARTH
REF_FRAME      = TEME
TIME_SYSTEM    = UTC
MEAN_ELEMENT_THEORY = SGP/SGP4

EPOCH          = 2026-02-24T22:04:01.519392
MEAN_MOTION    = 15.54034713
ECCENTRICITY   = .008809
INCLINATION    = 35.6034
RA_OF_ASC_NODE = 258.5428
ARG_OF_PERICENTER = 139.8836
MEAN_ANOMALY   = 220.8445

EPHEMERIS_TYPE = 0
CLASSIFICATION_TYPE = U
NORAD_CAT_ID   = 20453
ELEMENT_SET_NO = 999
REV_AT_EPOCH   = 92414
BSTAR          = .75384E-3
MEAN_MOTION_DOT = .60269E-3
MEAN_MOTION_DDOT = 0

CCSDS_OMM_VERS = 2.0
CREATION_DATE  = 
ORIGINATOR     = 

OBJECT_NAME    = COSMOS 2058
OBJECT_ID      = 1990-010A
CENTER_NAME    = EARTH
REF_FRAME      = TEME
TIME_SYSTEM    = UTC
MEAN_ELEMENT_THEORY = SGP/SGP4

EPOCH          = 2026-02-25T01:37:43.825440
MEAN_MOTION    = 15.11192346
ECCENTRICITY   = .001025
INCLINATION    = 82.4672
RA_OF_ASC_NODE = 59.8630
ARG_OF_PERICENTER = 25.8279
MEAN_ANOMALY   = 334.3461

EPHEMERIS_TYPE = 0
CLASSIFICATION_TYPE = U
NORAD_CAT_ID   = 20465
ELEMENT_SET_NO = 999
REV_AT_EPOCH   = 94033
BSTAR          = .21295309E-3
MEAN_MOTION_DOT = .3607E-4
MEAN_MOTION_DDOT = 0

CCSDS_OMM_VERS = 2.0
CREATION_DATE  = 
ORIGINATOR     = 

OBJECT_NAME    = SL-14 R/B
OBJECT_ID      = 1990-010B
CENTER_NAME    = EARTH
REF_FRAME      = TEME
TIME_SYSTEM    = UTC
MEAN_ELEMENT_THEORY = SGP/SGP4

EPOCH          = 2026-02-25T01:47:03.317280
MEAN_MOTION    = 14.83556509
ECCENTRICITY   = .00194261
INCLINATION    = 82.4999
RA_OF_ASC_NODE = 279.2414
ARG_OF_PERICENTER = 345.8849
MEAN_ANOMALY   = 14.1821

EPHEMERIS_TYPE = 0
CLASSIFICATION_TYPE = U
NORAD_CAT_ID   = 20466
ELEMENT_SET_NO = 999
REV_AT_EPOCH   = 92661
BSTAR          = .38197232E-4
MEAN_MOTION_DOT = .339E-5
MEAN_MOTION_DDOT = 0

CCSDS_OMM_VERS = 2.0
CREATION_DATE  = 
ORIGINATOR     = 

OBJECT_NAME    = SL-14 R/B
OBJECT_ID      = 1990-018B
CENTER_NAME    = EARTH
REF_FRAME      = TEME
TIME_SYSTEM    = UTC
MEAN_ELEMENT_THEORY = SGP/SGP4

EPOCH          = 2026-02-24T17:49:08.965632
MEAN_MOTION    = 14.82128522
ECCENTRICITY   = .00173899
INCLINATION    = 82.5183
RA_OF_ASC_NODE = 235.1929
ARG_OF_PERICENTER = 131.4881
MEAN_ANOMALY   = 228.7829

EPHEMERIS_TYPE = 0
CLASSIFICATION_TYPE = U
NORAD_CAT_ID   = 20511
ELEMENT_SET_NO = 999
REV_AT_EPOCH   = 92066
BSTAR          = .5635418E-4
MEAN_MOTION_DOT = .473E-5
MEAN_MOTION_DDOT = 0

CCSDS_OMM_VERS = 2.0
CREATION_DATE  = 
ORIGINATOR     = 

OBJECT_NAME    = HST
OBJECT_ID      = 1990-037B
CENTER_NAME    = EARTH
REF_FRAME      = TEME
TIME_SYSTEM    = UTC
MEAN_ELEMENT_THEORY = SGP/SGP4

EPOCH          = 2026-02-25T06:48:01.509984
MEAN_MOTION    = 15.29261769
ECCENTRICITY   = .00012596
INCLINATION    = 28.4689
RA_OF_ASC_NODE = 124.6179
ARG_OF_PERICENTER = 353.4201
MEAN_ANOMALY   = 6.6378

EPHEMERIS_TYPE = 0
CLASSIFICATION_TYPE = U
NORAD_CAT_ID   = 20580
ELEMENT_SET_NO = 999
REV_AT_EPOCH   = 77141
BSTAR          = .23653046E-3
MEAN_MOTION_DOT = .714E-4
MEAN_MOTION_DDOT = 0

CCSDS_OMM_VERS = 2.0
CREATION_DATE  = 
ORIGINATOR     = 

OBJECT_NAME    = SL-16 R/B
OBJECT_ID      = 1990-046B
CENTER_NAME    = EARTH
REF_FRAME      = TEME
TIME_SYSTEM    = UTC
MEAN_ELEMENT_THEORY = SGP/SGP4

EPOCH          = 2026-02-25T04:26:03.116256
MEAN_MOTION    = 14.15015286
ECCENTRICITY   = .00158177
INCLINATION    = 71.0016
RA_OF_ASC_NODE = 324.1764
ARG_OF_PERICENTER = 316.7358
MEAN_ANOMALY   = 43.2521

EPHEMERIS_TYPE = 0
CLASSIFICATION_TYPE = U
NORAD_CAT_ID   = 20625
ELEMENT_SET_NO = 999
REV_AT_EPOCH   = 84662
BSTAR          = .1622471E-4
MEAN_MOTION_DOT = -.16E-6
MEAN_MOTION_DDOT = 0

CCSDS_OMM_VERS = 2.0
CREATION_DATE  = 
ORIGINATOR     = 

OBJECT_NAME    = COSMOS 2084
OBJECT_ID      = 1990-055A
CENTER_NAME    = EARTH
REF_FRAME      = TEME
TIME_SYSTEM    = UTC
MEAN_ELEMENT_THEORY = SGP/SGP4

EPOCH          = 2026-02-25T05:39:21.448224
MEAN_MOTION    = 15.05559438
ECCENTRICITY   = .00190225
INCLINATION    = 62.7912
RA_OF_ASC_NODE = 18.0500
ARG_OF_PERICENTER = 187.1015
MEAN_ANOMALY   = 172.9819

EPHEMERIS_TYPE = 0
CLASSIFICATION_TYPE = U
NORAD_CAT_ID   = 20663
ELEMENT_SET_NO = 999
REV_AT_EPOCH   = 93444
BSTAR          = .20767281E-3
MEAN_MOTION_DOT = .2814E-4
MEAN_MOTION_DDOT = 0

CCSDS_OMM_VERS = 2.0
CREATION_DATE  = 
ORIGINATOR     = 

OBJECT_NAME    = SL-6 R/B(2)
OBJECT_ID      = 1990-055D
CENTER_NAME    = EARTH
REF_FRAME      = TEME
TIME_SYSTEM    = UTC
MEAN_ELEMENT_THEORY = SGP/SGP4

EPOCH          = 2026-02-24T16:03:47.287584
MEAN_MOTION    = 15.03525271
ECCENTRICITY   = .00227315
INCLINATION    = 62.7831
RA_OF_ASC_NODE = 298.1277
ARG_OF_PERICENTER = 343.7050
MEAN_ANOMALY   = 16.3316

EPHEMERIS_TYPE = 0
CLASSIFICATION_TYPE = U
NORAD_CAT_ID   = 20666
ELEMENT_SET_NO = 999
REV_AT_EPOCH   = 93623
BSTAR          = .16563041E-3
MEAN_MOTION_DOT = .2082E-4
MEAN_MOTION_DDOT = 0

CCSDS_OMM_VERS = 2.0
CREATION_DATE  = 
ORIGINATOR     = 

OBJECT_NAME    = SL-8 R/B
OBJECT_ID      = 1990-078B
CENTER_NAME    = EARTH
REF_FRAME      = TEME
TIME_SYSTEM    = UTC
MEAN_ELEMENT_THEORY = SGP/SGP4

EPOCH          = 2026-02-25T01:48:07.602336
MEAN_MOTION    = 14.88598164
ECCENTRICITY   = .03650351
INCLINATION    = 82.9003
RA_OF_ASC_NODE = 262.6530
ARG_OF_PERICENTER = 56.3288
MEAN_ANOMALY   = 307.2179

EPHEMERIS_TYPE = 0
CLASSIFICATION_TYPE = U
NORAD_CAT_ID   = 20775
ELEMENT_SET_NO = 999
REV_AT_EPOCH   = 80742
BSTAR          = .37241067E-3
MEAN_MOTION_DOT = .12702E-3
MEAN_MOTION_DDOT = 0

CCSDS_OMM_VERS = 2.0
CREATION_DATE  = 
ORIGINATOR     = 

OBJECT_NAME    = SL-8 R/B
OBJECT_ID      = 1991-006B
CENTER_NAME    = EARTH
REF_FRAME      = TEME
TIME_SYSTEM    = UTC
MEAN_ELEMENT_THEORY = SGP/SGP4

EPOCH          = 2026-02-25T06:37:46.096608
MEAN_MOTION    = 13.77492840
ECCENTRICITY   = .00236284
INCLINATION    = 82.9459
RA_OF_ASC_NODE = 179.2736
ARG_OF_PERICENTER = 71.6417
MEAN_ANOMALY   = 350.1127

EPHEMERIS_TYPE = 0
CLASSIFICATION_TYPE = U
NORAD_CAT_ID   = 21088
ELEMENT_SET_NO = 999
REV_AT_EPOCH   = 76236
BSTAR          = .37698794E-4
MEAN_MOTION_DOT = .53E-6
MEAN_MOTION_DDOT = 0

CCSDS_OMM_VERS = 2.0
CREATION_DATE  = 
ORIGINATOR     = 

OBJECT_NAME    = OKEAN-3
OBJECT_ID      = 1991-039A
CENTER_NAME    = EARTH
REF_FRAME      = TEME
TIME_SYSTEM    = UTC
MEAN_ELEMENT_THEORY = SGP/SGP4

EPOCH          = 2026-02-25T05:51:14.380416
MEAN_MOTION    = 15.04704453
ECCENTRICITY   = .00148584
INCLINATION    = 82.5201
RA_OF_ASC_NODE = 348.8977
ARG_OF_PERICENTER = 20.0312
MEAN_ANOMALY   = 340.1494

EPHEMERIS_TYPE = 0
CLASSIFICATION_TYPE = U
NORAD_CAT_ID   = 21397
ELEMENT_SET_NO = 999
REV_AT_EPOCH   = 86316
BSTAR          = .22038821E-3
MEAN_MOTION_DOT = .3136E-4
MEAN_MOTION_DDOT = 0

CCSDS_OMM_VERS = 2.0
CREATION_DATE  = 
ORIGINATOR     = 

OBJECT_NAME    = COSMOS 2151
OBJECT_ID      = 1991-042A
CENTER_NAME    = EARTH
REF_FRAME      = TEME
TIME_SYSTEM    = UTC
MEAN_ELEMENT_THEORY = SGP/SGP4

EPOCH          = 2026-02-25T05:01:41.293344
MEAN_MOTION    = 15.00050674
ECCENTRICITY   = .00141285
INCLINATION    = 82.4938
RA_OF_ASC_NODE = 95.7174
ARG_OF_PERICENTER = 100.9196
MEAN_ANOMALY   = 259.3618

EPHEMERIS_TYPE = 0
CLASSIFICATION_TYPE = U
NORAD_CAT_ID   = 21422
ELEMENT_SET_NO = 999
REV_AT_EPOCH   = 86132
BSTAR          = .112759E-3
MEAN_MOTION_DOT = .1433E-4
MEAN_MOTION_DDOT = 0

